{"type": "FeatureCollection", "features": [ {"type": "Feature", "properties": {"norad_id": 34001, "name": "COSMOS 2251 DEB", "group": "cosmos-2251-debris", "lat": -43.663550811965585, "lon": 125.86139401933367, "alt_km": 786.1439321873922, "timestamp": "2025-12-08T03:50:07.389425+00:00", "meta": {"OBJECT_NAME": "COSMOS 2251 DEB", "OBJECT_ID": "1993-036GL", "EPOCH": "2025-12-07T07:26:11.671584", "MEAN_MOTION": 14.370875, "ECCENTRICITY": 0.00197079, "INCLINATION": 74.0383, "RA_OF_ASC_NODE": 291.5714, "ARG_OF_PERICENTER": 13.8142, "MEAN_ANOMALY": 136.663, "EPHEMERIS_TYPE": 0, "CLASSIFICATION_TYPE": "U", "NORAD_CAT_ID": 34001, "ELEMENT_SET_NO": 999, "REV_AT_EPOCH": 88068, "BSTAR": 0.00039470326, "MEAN_MOTION_DOT": 1.149e-05, "MEAN_MOTION_DDOT": 0}, "tle": {"line1": "1 34001U 93036GL  25341.30985731  .00001149  00000+0  39470-3 0  9990", "line2": "2 34001  74.0383 291.5714 0019707  13.8142 136.6630 14.37087500880687"}}, "geometry": {"type": "Point", "coordinates": [125.86139401933367, -43.663550811965585]}}, {"type": "Feature", "properties": {"norad_id": 34003, "name": "COSMOS 2251 DEB", "group": "cosmos-2251-debris", "lat": -72.92855067270511, "lon": -178.79480263252586, "alt_km": 1112.7229484529653, "timestamp": "2025-12-08T03:50:07.389435+00:00", "meta": {"OBJECT_NAME": "COSMOS 2251 DEB", "OBJECT_ID": "1993-036GN", "EPOCH": "2025-12-06T22:48:44.721504", "MEAN_MOTION": 13.84099508, "ECCENTRICITY": 0.02738921, "INCLINATION": 74.0787, "RA_OF_ASC_NODE": 294.8872, "ARG_OF_PERICENTER": 48.2566, "MEAN_ANOMALY": 314.1626, "EPHEMERIS_TYPE": 0, "CLASSIFICATION_TYPE": "U", "NORAD_CAT_ID": 34003, "ELEMENT_SET_NO": 999, "REV_AT_EPOCH": 84345, "BSTAR": 0.0030737359, "MEAN_MOTION_DOT": 4.555e-05, "MEAN_MOTION_DDOT": 0}, "tle": {"line1": "1 34003U 93036GN  25340.95051761  .00004555  00000+0  30737-2 0  9999", "line2": "2 34003  74.0787 294.8872 0273892  48.2566 314.1626 13.84099508843451"}}, "geometry": {"type": "Point", "coordinates": [-178.79480263252586, -72.92855067270511]}}, {"type": "Feature", "properties": {"norad_id": 34004, "name": "COSMOS 2251 DEB", "group": "cosmos-2251-debris", "lat": -73.01368919001692, "lon": -107.87181295889167, "alt_km": 723.6631051583263, "timestamp": "2025-12-08T03:50:07.389445+00:00", "meta": {"OBJECT_NAME": "COSMOS 2251 DEB", "OBJECT_ID": "1993-036GP", "EPOCH": "2025-12-07T00:03:02.971008", "MEAN_MOTION": 14.48920169, "ECCENTRICITY": 0.00332638, "INCLINATION": 74.0359, "RA_OF_ASC_NODE": 323.8672, "ARG_OF_PERICENTER": 336.8395, "MEAN_ANOMALY": 23.1263, "EPHEMERIS_TYPE": 0, "CLASSIFICATION_TYPE": "U", "NORAD_CAT_ID": 34004, "ELEMENT_SET_NO": 999, "REV_AT_EPOCH": 87947, "BSTAR": 0.0022264278, "MEAN_MOTION_DOT": 8.471e-05, "MEAN_MOTION_DDOT": 0}, "tle": {"line1": "1 34004U 93036GP  25341.00211772  .00008471  00000+0  22264-2 0  9994", "line2": "2 34004  74.0359 323.8672 0033263 336.8395  23.1263 14.48920169879472"}}, "geometry": {"type": "Point", "coordinates": [-107.87181295889167, -73.01368919001692]}}, {"type": "Feature", "properties": {"norad_id": 34005, "name": "COSMOS 2251 DEB", "group": "cosmos-2251-debris", "lat": -26.296062607773816, "lon": -146.01758488522913, "alt_km": 748.271694345538, "timestamp": "2025-12-08T03:50:07.389455+00:00", "meta": {"OBJECT_NAME": "COSMOS 2251 DEB", "OBJECT_ID": "1993-036GQ", "EPOCH": "2025-12-07T00:08:30.494400", "MEAN_MOTION": 14.40297959, "ECCENTRICITY": 0.00206269, "INCLINATION": 74.045, "RA_OF_ASC_NODE": 224.2404, "ARG_OF_PERICENTER": 343.4468, "MEAN_ANOMALY": 128.6201, "EPHEMERIS_TYPE": 0, "CLASSIFICATION_TYPE": "U", "NORAD_CAT_ID": 34005, "ELEMENT_SET_NO": 999, "REV_AT_EPOCH": 88296, "BSTAR": 0.00020355807, "MEAN_MOTION_DOT": 6.2e-06, "MEAN_MOTION_DDOT": 0}, "tle": {"line1": "1 34005U 93036GQ  25341.00590850  .00000620  00000+0  20356-3 0  9991", "line2": "2 34005  74.0450 224.2404 0020626 343.4468 128.6201 14.40297959882963"}}, "geometry": {"type": "Point", "coordinates": [-146.01758488522913, -26.296062607773816]}}, {"type": "Feature", "properties": {"norad_id": 34006, "name": "COSMOS 2251 DEB", "group": "cosmos-2251-debris", "lat": 60.79878671910047, "lon": -176.7256910687804, "alt_km": 572.1330714317355, "timestamp": "2025-12-08T03:50:07.389465+00:00", "meta": {"OBJECT_NAME": "COSMOS 2251 DEB", "OBJECT_ID": "1993-036GR", "EPOCH": "2025-12-07T05:50:29.551776", "MEAN_MOTION": 14.94159476, "ECCENTRICITY": 0.00117947, "INCLINATION": 74.0534, "RA_OF_ASC_NODE": 154.3475, "ARG_OF_PERICENTER": 107.5481, "MEAN_ANOMALY": 70.3781, "EPHEMERIS_TYPE": 0, "CLASSIFICATION_TYPE": "U", "NORAD_CAT_ID": 34006, "ELEMENT_SET_NO": 999, "REV_AT_EPOCH": 88586, "BSTAR": 0.0051874733, "MEAN_MOTION_DOT": 0.00056026, "MEAN_MOTION_DDOT": 0}, "tle": {"line1": "1 34006U 93036GR  25341.24339759  .00056026  00000+0  51875-2 0  9997", "line2": "2 34006  74.0534 154.3475 0011794 107.5481  70.3781 14.94159476885866"}}, "geometry": {"type": "Point", "coordinates": [-176.7256910687804, 60.79878671910047]}}, {"type": "Feature", "properties": {"norad_id": 34007, "name": "COSMOS 2251 DEB", "group": "cosmos-2251-debris", "lat": 45.01433702890071, "lon": 159.05241410040853, "alt_km": 642.2879148385991, "timestamp": "2025-12-08T03:50:07.389475+00:00", "meta": {"OBJECT_NAME": "COSMOS 2251 DEB", "OBJECT_ID": "1993-036GS", "EPOCH": "2025-12-07T07:33:49.150944", "MEAN_MOTION": 14.64729067, "ECCENTRICITY": 0.00445297, "INCLINATION": 74.0195, "RA_OF_ASC_NODE": 357.3385, "ARG_OF_PERICENTER": 134.0051, "MEAN_ANOMALY": 226.4801, "EPHEMERIS_TYPE": 0, "CLASSIFICATION_TYPE": "U", "NORAD_CAT_ID": 34007, "ELEMENT_SET_NO": 999, "REV_AT_EPOCH": 89000, "BSTAR": 0.0010585284, "MEAN_MOTION_DOT": 5.694e-05, "MEAN_MOTION_DDOT": 0}, "tle": {"line1": "1 34007U 93036GS  25341.31515221  .00005694  00000+0  10585-2 0  9994", "line2": "2 34007  74.0195 357.3385 0044529 134.0051 226.4801 14.64729067890000"}}, "geometry": {"type": "Point", "coordinates": [159.05241410040853, 45.01433702890071]}}, {"type": "Feature", "properties": {"norad_id": 34008, "name": "COSMOS 2251 DEB", "group": "cosmos-2251-debris", "lat": -2.47797545427074, "lon": -21.820090562433286, "alt_km": 768.2231363585697, "timestamp": "2025-12-08T03:50:07.389486+00:00", "meta": {"OBJECT_NAME": "COSMOS 2251 DEB", "OBJECT_ID": "1993-036GT", "EPOCH": "2025-12-07T06:08:30.102144", "MEAN_MOTION": 14.33140387, "ECCENTRICITY": 0.00241214, "INCLINATION": 74.0341, "RA_OF_ASC_NODE": 340.541, "ARG_OF_PERICENTER": 336.804, "MEAN_ANOMALY": 38.9807, "EPHEMERIS_TYPE": 0, "CLASSIFICATION_TYPE": "U", "NORAD_CAT_ID": 34008, "ELEMENT_SET_NO": 999, "REV_AT_EPOCH": 87886, "BSTAR": 0.00022318098, "MEAN_MOTION_DOT": 5.88e-06, "MEAN_MOTION_DDOT": 0}, "tle": {"line1": "1 34008U 93036GT  25341.25590396  .00000588  00000+0  22318-3 0  9999", "line2": "2 34008  74.0341 340.5410 0024121 336.8040  38.9807 14.33140387878863"}}, "geometry": {"type": "Point", "coordinates": [-21.820090562433286, -2.47797545427074]}}, {"type": "Feature", "properties": {"norad_id": 34009, "name": "COSMOS 2251 DEB", "group": "cosmos-2251-debris", "lat": 30.556992632827868, "lon": -4.963638285946484, "alt_km": 761.8303986067849, "timestamp": "2025-12-08T03:50:07.389495+00:00", "meta": {"OBJECT_NAME": "COSMOS 2251 DEB", "OBJECT_ID": "1993-036GU", "EPOCH": "2025-12-07T07:39:30.367872", "MEAN_MOTION": 14.33215748, "ECCENTRICITY": 0.0026345, "INCLINATION": 74.0371, "RA_OF_ASC_NODE": 346.8432, "ARG_OF_PERICENTER": 58.2195, "MEAN_ANOMALY": 317.973, "EPHEMERIS_TYPE": 0, "CLASSIFICATION_TYPE": "U", "NORAD_CAT_ID": 34009, "ELEMENT_SET_NO": 999, "REV_AT_EPOCH": 87868, "BSTAR": 0.0002431103, "MEAN_MOTION_DOT": 6.45e-06, "MEAN_MOTION_DDOT": 0}, "tle": {"line1": "1 34009U 93036GU  25341.31910148  .00000645  00000+0  24311-3 0  9997", "line2": "2 34009  74.0371 346.8432 0026345  58.2195 317.9730 14.33215748878685"}}, "geometry": {"type": "Point", "coordinates": [-4.963638285946484, 30.556992632827868]}}, {"type": "Feature", "properties": {"norad_id": 34010, "name": "COSMOS 2251 DEB", "group": "cosmos-2251-debris", "lat": -50.134998569794575, "lon": -87.19411660838928, "alt_km": 521.1072871354654, "timestamp": "2025-12-08T03:50:07.389505+00:00", "meta": {"OBJECT_NAME": "COSMOS 2251 DEB", "OBJECT_ID": "1993-036GV", "EPOCH": "2025-12-06T22:00:08.825184", "MEAN_MOTION": 15.17164737, "ECCENTRICITY": 0.00045583, "INCLINATION": 73.9996, "RA_OF_ASC_NODE": 295.5027, "ARG_OF_PERICENTER": 59.7073, "MEAN_ANOMALY": 300.4573, "EPHEMERIS_TYPE": 0, "CLASSIFICATION_TYPE": "U", "NORAD_CAT_ID": 34010, "ELEMENT_SET_NO": 999, "REV_AT_EPOCH": 89197, "BSTAR": 0.0061426669, "MEAN_MOTION_DOT": 0.00124104, "MEAN_MOTION_DDOT": 0}, "tle": {"line1": "1 34010U 93036GV  25340.91676881  .00124104  00000+0  61427-2 0  9992", "line2": "2 34010  73.9996 295.5027 0004558  59.7073 300.4573 15.17164737891974"}}, "geometry": {"type": "Point", "coordinates": [-87.19411660838928, -50.134998569794575]}}, {"type": "Feature", "properties": {"norad_id": 34011, "name": "COSMOS 2251 DEB", "group": "cosmos-2251-debris", "lat": -69.37547274035326, "lon": -151.74280019890588, "alt_km": 784.2030922567192, "timestamp": "2025-12-08T03:50:07.389515+00:00", "meta": {"OBJECT_NAME": "COSMOS 2251 DEB", "OBJECT_ID": "1993-036GW", "EPOCH": "2025-12-07T00:00:14.422752", "MEAN_MOTION": 14.41727991, "ECCENTRICITY": 0.00352756, "INCLINATION": 74.0148, "RA_OF_ASC_NODE": 340.7993, "ARG_OF_PERICENTER": 66.3201, "MEAN_ANOMALY": 294.165, "EPHEMERIS_TYPE": 0, "CLASSIFICATION_TYPE": "U", "NORAD_CAT_ID": 34011, "ELEMENT_SET_NO": 999, "REV_AT_EPOCH": 87833, "BSTAR": 0.0012394151, "MEAN_MOTION_DOT": 4.05e-05, "MEAN_MOTION_DDOT": 0}, "tle": {"line1": "1 34011U 93036GW  25341.00016693  .00004050  00000+0  12394-2 0  9999", "line2": "2 34011  74.0148 340.7993 0035275  66.3201 294.1650 14.41727991878331"}}, "geometry": {"type": "Point", "coordinates": [-151.74280019890588, -69.37547274035326]}}]}